{
    "links": {
        "self": "http://www.neowsapp.com/rest/v1/neo/3638576?api_key=iIulBulltgU6a56xZRHN4H3l9WmuAYTsLGpBGhQ2"
    },
    "id": "3638576",
    "neo_reference_id": "3638576",
    "name": "(2013 KS1)",
    "designation": "2013 KS1",
    "nasa_jpl_url": "http://ssd.jpl.nasa.gov/sbdb.cgi?sstr=3638576",
    "absolute_magnitude_h": 26.8,
    "estimated_diameter": {
        "kilometers": {
            "estimated_diameter_min": 0.0116025908,
            "estimated_diameter_max": 0.0259441818
        },
        "meters": {
            "estimated_diameter_min": 11.6025908209,
            "estimated_diameter_max": 25.9441817907
        },
        "miles": {
            "estimated_diameter_min": 0.0072095135,
            "estimated_diameter_max": 0.0161209622
        },
        "feet": {
            "estimated_diameter_min": 38.066244069,
            "estimated_diameter_max": 85.1187093863
        }
    },
    "is_potentially_hazardous_asteroid": false,
    "close_approach_data": [
        {
            "close_approach_date": "1975-05-17",
            "close_approach_date_full": "1975-May-17 06:33",
            "epoch_date_close_approach": 169540380000,
            "relative_velocity": {
                "kilometers_per_second": "10.9945316866",
                "kilometers_per_hour": "39580.3140716203",
                "miles_per_hour": "24593.6679296687"
            },
            "miss_distance": {
                "astronomical": "0.0626267656",
                "lunar": "24.3618118184",
                "kilometers": "9368830.738749272",
                "miles": "5821521.4735210736"
            },
            "orbiting_body": "Earth"
        },
        {
            "close_approach_date": "1977-08-20",
            "close_approach_date_full": "1977-Aug-20 19:55",
            "epoch_date_close_approach": 240954900000,
            "relative_velocity": {
                "kilometers_per_second": "7.5374466134",
                "kilometers_per_hour": "27134.8078082072",
                "miles_per_hour": "16860.5143294941"
            },
            "miss_distance": {
                "astronomical": "0.0304342952",
                "lunar": "11.8389408328",
                "kilometers": "4552905.736871224",
                "miles": "2829044.4403579312"
            },
            "orbiting_body": "Mars"
        },
        {
            "close_approach_date": "2013-05-22",
            "close_approach_date_full": "2013-May-22 11:39",
            "epoch_date_close_approach": 1369222740000,
            "relative_velocity": {
                "kilometers_per_second": "9.5016818087",
                "kilometers_per_hour": "34206.0545114321",
                "miles_per_hour": "21254.3120379507"
            },
            "miss_distance": {
                "astronomical": "0.0123321325",
                "lunar": "4.7971995425",
                "kilometers": "1844860.754557775",
                "miles": "1146343.316236295"
            },
            "orbiting_body": "Earth"
        },
        {
            "close_approach_date": "2013-10-13",
            "close_approach_date_full": "2013-Oct-13 09:28",
            "epoch_date_close_approach": 1381656480000,
            "relative_velocity": {
                "kilometers_per_second": "5.2192269997",
                "kilometers_per_hour": "18789.2171988683",
                "miles_per_hour": "11674.8888755968"
            },
            "miss_distance": {
                "astronomical": "0.4689624226",
                "lunar": "182.4263823914",
                "kilometers": "70155779.530999862",
                "miles": "43592779.9764956156"
            },
            "orbiting_body": "Earth"
        }
    ],
    "orbital_data": {
        "orbit_id": "6",
        "orbit_determination_date": "2017-04-06 08:45:45",
        "first_observation_date": "2013-05-17",
        "last_observation_date": "2013-05-21",
        "data_arc_in_days": 4,
        "observations_used": 24,
        "orbit_uncertainty": "8",
        "minimum_orbit_intersection": ".00626119",
        "jupiter_tisserand_invariant": "4.485",
        "epoch_osculation": "2456430.5",
        "eccentricity": ".3898552302007934",
        "semi_major_axis": "1.48612351718227",
        "inclination": "1.798899133019964",
        "ascending_node_longitude": "231.3969906251545",
        "orbital_period": "661.7299433666593",
        "perihelion_distance": ".9067504912843632",
        "perihelion_argument": "62.64609492243732",
        "aphelion_distance": "2.065496543080176",
        "perihelion_time": "2456476.907151868877",
        "mean_anomaly": "334.753183167444",
        "mean_motion": ".5440285778340952",
        "equinox": "J2000",
        "orbit_class": {
            "orbit_class_type": "APO",
            "orbit_class_description": "Near-Earth asteroid orbits which cross the Earth’s orbit similar to that of 1862 Apollo",
            "orbit_class_range": "a (semi-major axis) > 1.0 AU; q (perihelion) < 1.017 AU"
        }
    },
    "is_sentry_object": false
}